STARLINK-36636          
1 67611U 26018Y   26055.58337963  .00009566  00000+0  64897-4 0  9993
2 67611  97.2865 120.8198 0000840  87.5006 131.1499 15.75202789  5253
STARLINK-36407          
1 67612U 26018Z   26055.61858142  .00196100  00000+0  12842-2 0  9997
2 67612  97.2848 120.8371 0001821  74.7665 285.3802 15.75216209  5305
STARLINK-36597          
1 67613U 26018AA  26055.58337963 -.01789740  00000+0 -12643-1 0  9996
2 67613  97.2858 120.8541 0001492  81.8468 209.4461 15.76930285  5250
NEONSAT-1A              
1 67614U 26019A   26055.30699405  .00003672  00000+0  24443-3 0  9993
2 67614  97.4094 179.3647 0012683 215.4232 144.6155 15.07667050  3809
ELECTRON KICK STAGE R/B 
1 67616U 26019C   26055.32938137  .00529749  90173-4  19627-2 0  9995
2 67616  97.4010 181.4666 0148097 170.4097 190.0051 15.72896427  3941
STARLINK-36548          
1 67617U 26020A   26055.50281302  .00372292  00000+0  21695-2 0  9995
2 67617  42.9965 222.4270 0001236 199.0286 161.0538 15.76581832  4004
STARLINK-36601          
1 67618U 26020B   26055.58337963 -.00065202  00000+0 -39986-3 0  9994
2 67618  42.9990 221.3198 0001490 263.9931  82.6609 15.76401491  5280
STARLINK-36119          
1 67619U 26020C   26055.18383813  .00319895  00000+0  18893-2 0  9997
2 67619  42.9986 224.3355 0001548  43.2455 316.8536 15.76425088  3959
STARLINK-36607          
1 67620U 26020D   26055.53332844  .00300037  00000+0  17795-2 0  9994
2 67620  42.9982 221.7761 0003776 293.3273  66.7199 15.76382314  4018
STARLINK-36615          
1 67621U 26020E   26055.58337963 -.00898143  00000+0 -59517-2 0  9997
2 67621  42.9993 221.1944 0001723 265.5733 130.5221 15.77006094  5285
STARLINK-36614          
1 67622U 26020F   26055.49624238  .00349299  00000+0  20522-2 0  9997
2 67622  42.9984 222.3747 0001821 259.0181 101.0484 15.76460964  4006
STARLINK-36600          
1 67623U 26020G   26055.62515399  .00263207  00000+0  15599-2 0  9992
2 67623  42.9999 221.6217 0002548 284.6669  75.3918 15.76506766  4027
