CCSDS_OMM_VERS = 2.0
CREATION_DATE  = 
ORIGINATOR     = 

OBJECT_NAME    = STARLINK-36636
OBJECT_ID      = 2026-018Y
CENTER_NAME    = EARTH
REF_FRAME      = TEME
TIME_SYSTEM    = UTC
MEAN_ELEMENT_THEORY = SGP/SGP4

EPOCH          = 2026-02-24T14:00:04.000032
MEAN_MOTION    = 15.75202789
ECCENTRICITY   = .000084
INCLINATION    = 97.2865
RA_OF_ASC_NODE = 120.8198
ARG_OF_PERICENTER = 87.5006
MEAN_ANOMALY   = 131.1499

EPHEMERIS_TYPE = 0
CLASSIFICATION_TYPE = U
NORAD_CAT_ID   = 67611
ELEMENT_SET_NO = 999
REV_AT_EPOCH   = 525
BSTAR          = .64897191E-4
MEAN_MOTION_DOT = .9566E-4
MEAN_MOTION_DDOT = 0

CCSDS_OMM_VERS = 2.0
CREATION_DATE  = 
ORIGINATOR     = 

OBJECT_NAME    = STARLINK-36407
OBJECT_ID      = 2026-018Z
CENTER_NAME    = EARTH
REF_FRAME      = TEME
TIME_SYSTEM    = UTC
MEAN_ELEMENT_THEORY = SGP/SGP4

EPOCH          = 2026-02-24T14:50:45.434688
MEAN_MOTION    = 15.75216209
ECCENTRICITY   = .00018214
INCLINATION    = 97.2848
RA_OF_ASC_NODE = 120.8371
ARG_OF_PERICENTER = 74.7665
MEAN_ANOMALY   = 285.3802

EPHEMERIS_TYPE = 0
CLASSIFICATION_TYPE = U
NORAD_CAT_ID   = 67612
ELEMENT_SET_NO = 999
REV_AT_EPOCH   = 530
BSTAR          = .12841718E-2
MEAN_MOTION_DOT = .1961E-2
MEAN_MOTION_DDOT = 0

CCSDS_OMM_VERS = 2.0
CREATION_DATE  = 
ORIGINATOR     = 

OBJECT_NAME    = STARLINK-36597
OBJECT_ID      = 2026-018AA
CENTER_NAME    = EARTH
REF_FRAME      = TEME
TIME_SYSTEM    = UTC
MEAN_ELEMENT_THEORY = SGP/SGP4

EPOCH          = 2026-02-24T14:00:04.000032
MEAN_MOTION    = 15.76930285
ECCENTRICITY   = .00014921
INCLINATION    = 97.2858
RA_OF_ASC_NODE = 120.8541
ARG_OF_PERICENTER = 81.8468
MEAN_ANOMALY   = 209.4461

EPHEMERIS_TYPE = 0
CLASSIFICATION_TYPE = U
NORAD_CAT_ID   = 67613
ELEMENT_SET_NO = 999
REV_AT_EPOCH   = 525
BSTAR          = -.12642782E-1
MEAN_MOTION_DOT = -.178974E-1
MEAN_MOTION_DDOT = 0

CCSDS_OMM_VERS = 2.0
CREATION_DATE  = 
ORIGINATOR     = 

OBJECT_NAME    = NEONSAT-1A
OBJECT_ID      = 2026-019A
CENTER_NAME    = EARTH
REF_FRAME      = TEME
TIME_SYSTEM    = UTC
MEAN_ELEMENT_THEORY = SGP/SGP4

EPOCH          = 2026-02-24T07:22:04.285920
MEAN_MOTION    = 15.07667050
ECCENTRICITY   = .0012683
INCLINATION    = 97.4094
RA_OF_ASC_NODE = 179.3647
ARG_OF_PERICENTER = 215.4232
MEAN_ANOMALY   = 144.6155

EPHEMERIS_TYPE = 0
CLASSIFICATION_TYPE = U
NORAD_CAT_ID   = 67614
ELEMENT_SET_NO = 999
REV_AT_EPOCH   = 380
BSTAR          = .24443E-3
MEAN_MOTION_DOT = .3672E-4
MEAN_MOTION_DDOT = 0

CCSDS_OMM_VERS = 2.0
CREATION_DATE  = 
ORIGINATOR     = 

OBJECT_NAME    = ELECTRON KICK STAGE R/B
OBJECT_ID      = 2026-019C
CENTER_NAME    = EARTH
REF_FRAME      = TEME
TIME_SYSTEM    = UTC
MEAN_ELEMENT_THEORY = SGP/SGP4

EPOCH          = 2026-02-24T07:54:18.550368
MEAN_MOTION    = 15.72896427
ECCENTRICITY   = .0148097
INCLINATION    = 97.4010
RA_OF_ASC_NODE = 181.4666
ARG_OF_PERICENTER = 170.4097
MEAN_ANOMALY   = 190.0051

EPHEMERIS_TYPE = 0
CLASSIFICATION_TYPE = U
NORAD_CAT_ID   = 67616
ELEMENT_SET_NO = 999
REV_AT_EPOCH   = 394
BSTAR          = .19627E-2
MEAN_MOTION_DOT = .529749E-2
MEAN_MOTION_DDOT = .90173E-4

CCSDS_OMM_VERS = 2.0
CREATION_DATE  = 
ORIGINATOR     = 

OBJECT_NAME    = STARLINK-36548
OBJECT_ID      = 2026-020A
CENTER_NAME    = EARTH
REF_FRAME      = TEME
TIME_SYSTEM    = UTC
MEAN_ELEMENT_THEORY = SGP/SGP4

EPOCH          = 2026-02-24T12:04:03.044928
MEAN_MOTION    = 15.76581832
ECCENTRICITY   = .00012368
INCLINATION    = 42.9965
RA_OF_ASC_NODE = 222.4270
ARG_OF_PERICENTER = 199.0286
MEAN_ANOMALY   = 161.0538

EPHEMERIS_TYPE = 0
CLASSIFICATION_TYPE = U
NORAD_CAT_ID   = 67617
ELEMENT_SET_NO = 999
REV_AT_EPOCH   = 400
BSTAR          = .21694605E-2
MEAN_MOTION_DOT = .372292E-2
MEAN_MOTION_DDOT = 0

CCSDS_OMM_VERS = 2.0
CREATION_DATE  = 
ORIGINATOR     = 

OBJECT_NAME    = STARLINK-36601
OBJECT_ID      = 2026-020B
CENTER_NAME    = EARTH
REF_FRAME      = TEME
TIME_SYSTEM    = UTC
MEAN_ELEMENT_THEORY = SGP/SGP4

EPOCH          = 2026-02-24T14:00:04.000032
MEAN_MOTION    = 15.76401491
ECCENTRICITY   = .00014909
INCLINATION    = 42.9990
RA_OF_ASC_NODE = 221.3198
ARG_OF_PERICENTER = 263.9931
MEAN_ANOMALY   = 82.6609

EPHEMERIS_TYPE = 0
CLASSIFICATION_TYPE = U
NORAD_CAT_ID   = 67618
ELEMENT_SET_NO = 999
REV_AT_EPOCH   = 528
BSTAR          = -.39985627E-3
MEAN_MOTION_DOT = -.65202E-3
MEAN_MOTION_DDOT = 0

CCSDS_OMM_VERS = 2.0
CREATION_DATE  = 
ORIGINATOR     = 

OBJECT_NAME    = STARLINK-36119
OBJECT_ID      = 2026-020C
CENTER_NAME    = EARTH
REF_FRAME      = TEME
TIME_SYSTEM    = UTC
MEAN_ELEMENT_THEORY = SGP/SGP4

EPOCH          = 2026-02-24T04:24:43.614432
MEAN_MOTION    = 15.76425088
ECCENTRICITY   = .0001548
INCLINATION    = 42.9986
RA_OF_ASC_NODE = 224.3355
ARG_OF_PERICENTER = 43.2455
MEAN_ANOMALY   = 316.8536

EPHEMERIS_TYPE = 0
CLASSIFICATION_TYPE = U
NORAD_CAT_ID   = 67619
ELEMENT_SET_NO = 999
REV_AT_EPOCH   = 395
BSTAR          = .18893E-2
MEAN_MOTION_DOT = .319895E-2
MEAN_MOTION_DDOT = 0

CCSDS_OMM_VERS = 2.0
CREATION_DATE  = 
ORIGINATOR     = 

OBJECT_NAME    = STARLINK-36607
OBJECT_ID      = 2026-020D
CENTER_NAME    = EARTH
REF_FRAME      = TEME
TIME_SYSTEM    = UTC
MEAN_ELEMENT_THEORY = SGP/SGP4

EPOCH          = 2026-02-24T12:47:59.577216
MEAN_MOTION    = 15.76382314
ECCENTRICITY   = .00037766
INCLINATION    = 42.9982
RA_OF_ASC_NODE = 221.7761
ARG_OF_PERICENTER = 293.3273
MEAN_ANOMALY   = 66.7199

EPHEMERIS_TYPE = 0
CLASSIFICATION_TYPE = U
NORAD_CAT_ID   = 67620
ELEMENT_SET_NO = 999
REV_AT_EPOCH   = 401
BSTAR          = .17794838E-2
MEAN_MOTION_DOT = .300037E-2
MEAN_MOTION_DDOT = 0

CCSDS_OMM_VERS = 2.0
CREATION_DATE  = 
ORIGINATOR     = 

OBJECT_NAME    = STARLINK-36615
OBJECT_ID      = 2026-020E
CENTER_NAME    = EARTH
REF_FRAME      = TEME
TIME_SYSTEM    = UTC
MEAN_ELEMENT_THEORY = SGP/SGP4

EPOCH          = 2026-02-24T14:00:04.000032
MEAN_MOTION    = 15.77006094
ECCENTRICITY   = .00017239
INCLINATION    = 42.9993
RA_OF_ASC_NODE = 221.1944
ARG_OF_PERICENTER = 265.5733
MEAN_ANOMALY   = 130.5221

EPHEMERIS_TYPE = 0
CLASSIFICATION_TYPE = U
NORAD_CAT_ID   = 67621
ELEMENT_SET_NO = 999
REV_AT_EPOCH   = 528
BSTAR          = -.59517468E-2
MEAN_MOTION_DOT = -.898143E-2
MEAN_MOTION_DDOT = 0

CCSDS_OMM_VERS = 2.0
CREATION_DATE  = 
ORIGINATOR     = 

OBJECT_NAME    = STARLINK-36614
OBJECT_ID      = 2026-020F
CENTER_NAME    = EARTH
REF_FRAME      = TEME
TIME_SYSTEM    = UTC
MEAN_ELEMENT_THEORY = SGP/SGP4

EPOCH          = 2026-02-24T11:54:35.341632
MEAN_MOTION    = 15.76460964
ECCENTRICITY   = .00018215
INCLINATION    = 42.9984
RA_OF_ASC_NODE = 222.3747
ARG_OF_PERICENTER = 259.0181
MEAN_ANOMALY   = 101.0484

EPHEMERIS_TYPE = 0
CLASSIFICATION_TYPE = U
NORAD_CAT_ID   = 67622
ELEMENT_SET_NO = 999
REV_AT_EPOCH   = 400
BSTAR          = .20522126E-2
MEAN_MOTION_DOT = .349299E-2
MEAN_MOTION_DDOT = 0

CCSDS_OMM_VERS = 2.0
CREATION_DATE  = 
ORIGINATOR     = 

OBJECT_NAME    = STARLINK-36600
OBJECT_ID      = 2026-020G
CENTER_NAME    = EARTH
REF_FRAME      = TEME
TIME_SYSTEM    = UTC
MEAN_ELEMENT_THEORY = SGP/SGP4

EPOCH          = 2026-02-24T15:00:13.304736
MEAN_MOTION    = 15.76506766
ECCENTRICITY   = .00025485
INCLINATION    = 42.9999
RA_OF_ASC_NODE = 221.6217
ARG_OF_PERICENTER = 284.6669
MEAN_ANOMALY   = 75.3918

EPHEMERIS_TYPE = 0
CLASSIFICATION_TYPE = U
NORAD_CAT_ID   = 67623
ELEMENT_SET_NO = 999
REV_AT_EPOCH   = 402
BSTAR          = .15598666E-2
MEAN_MOTION_DOT = .263207E-2
MEAN_MOTION_DDOT = 0

